[{"OBJECT_NAME":"HAWK-2B","OBJECT_ID":"2021-006CZ","EPOCH":"2026-03-09T16:13:51.664224","MEAN_MOTION":15.33301353,"ECCENTRICITY":0.00071021,"INCLINATION":97.2334,"RA_OF_ASC_NODE":114.114,"ARG_OF_PERICENTER":185.9063,"MEAN_ANOMALY":174.2098,"EPHEMERIS_TYPE":0,"CLASSIFICATION_TYPE":"U","NORAD_CAT_ID":47508,"ELEMENT_SET_NO":999,"REV_AT_EPOCH":28424,"BSTAR":0.00029650607,"MEAN_MOTION_DOT":9.474e-5,"MEAN_MOTION_DDOT":0},{"OBJECT_NAME":"STARLINK-31032","OBJECT_ID":"2023-192E","EPOCH":"2026-03-09T06:42:10.274112","MEAN_MOTION":15.30202083,"ECCENTRICITY":0.00014918,"INCLINATION":53.1623,"RA_OF_ASC_NODE":64.5659,"ARG_OF_PERICENTER":87.9905,"MEAN_ANOMALY":272.1267,"EPHEMERIS_TYPE":0,"CLASSIFICATION_TYPE":"U","NORAD_CAT_ID":58535,"ELEMENT_SET_NO":999,"REV_AT_EPOCH":12592,"BSTAR":9.3541556e-5,"MEAN_MOTION_DOT":2.412e-5,"MEAN_MOTION_DDOT":0}]
