HAWK-2B                 
1 47508U 21006CZ  26068.67629241  .00009474  00000+0  29651-3 0  9991
2 47508  97.2334 114.1140 0007102 185.9063 174.2098 15.33301353284246
STARLINK-31032          
1 58535U 23192E   26068.27928558  .00002412  00000+0  93542-4 0  9996
2 58535  53.1623  64.5659 0001491  87.9905 272.1267 15.30202083125926
